HIERARCHY
ROOT Hips
{
	OFFSET 0.00000 0.00000 0.00000
	CHANNELS 6 Xposition Yposition Zposition Zrotation Yrotation Xrotation 
	JOINT LHipJoint
	{
		OFFSET 0 0 0
		CHANNELS 3 Zrotation Yrotation Xrotation
		JOINT LeftUpLeg
		{
			OFFSET 1.57314 -1.85774 0.63783
			CHANNELS 3 Zrotation Yrotation Xrotation
			JOINT LeftLeg
			{
				OFFSET 2.57982 -7.08799 0.00000
				CHANNELS 3 Zrotation Yrotation Xrotation
				JOINT LeftFoot
				{
					OFFSET 2.63993 -7.25315 0.00000
					CHANNELS 3 Zrotation Yrotation Xrotation
					JOINT LeftToeBase
					{
						OFFSET 0.16864 -0.46332 2.12791
						CHANNELS 3 Zrotation Yrotation Xrotation
						End Site
						{
							OFFSET 0.00000 -0.00000 1.09718
						}
					}
				}
			}
		}
	}
	JOINT RHipJoint
	{
		OFFSET 0 0 0
		CHANNELS 3 Zrotation Yrotation Xrotation
		JOINT RightUpLeg
		{
			OFFSET -1.56006 -1.85774 0.63784
			CHANNELS 3 Zrotation Yrotation Xrotation
			JOINT RightLeg
			{
				OFFSET -2.54246 -6.98536 0.00000
				CHANNELS 3 Zrotation Yrotation Xrotation
				JOINT RightFoot
				{
					OFFSET -2.65791 -7.30256 0.00000
					CHANNELS 3 Zrotation Yrotation Xrotation
					JOINT RightToeBase
					{
						OFFSET -0.18435 -0.50650 2.16316
						CHANNELS 3 Zrotation Yrotation Xrotation
						End Site
						{
							OFFSET -0.00000 -0.00000 1.11780
						}
					}
				}
			}
		}
	}
	JOINT Spine
	{
		OFFSET 0 0 0
		CHANNELS 3 Zrotation Yrotation Xrotation
		JOINT Spine1
		{
			OFFSET -0.00136 1.92812 -0.29638
			CHANNELS 3 Zrotation Yrotation Xrotation
			JOINT Spine2
			{
				OFFSET -0.00528 1.96223 -0.02928
				CHANNELS 3 Zrotation Yrotation Xrotation
				JOINT Spine3
				{
					OFFSET 0 0 0
					CHANNELS 3 Zrotation Yrotation Xrotation
					JOINT Neck
					{
						OFFSET -0.01015 1.75586 0.07797
						CHANNELS 3 Zrotation Yrotation Xrotation
						JOINT Head
						{
							OFFSET 0.05540 1.72452 0.04558
							CHANNELS 3 Zrotation Yrotation Xrotation
							End Site
							{
								OFFSET 0.02170 1.79958 0.00864
							}
						}
					}
				}
				JOINT LeftShoulder
				{
					OFFSET 0 0 0
					CHANNELS 3 Zrotation Yrotation Xrotation
					JOINT LeftArm
					{
						OFFSET 3.16292 1.29277 -0.65728
						CHANNELS 3 Zrotation Yrotation Xrotation
						JOINT LeftForeArm
						{
							OFFSET 5.52302 -0.00000 -0.00000
							CHANNELS 3 Zrotation Yrotation Xrotation
							JOINT LeftHand
							{
								OFFSET 3.58675 -0.00000 -0.00000
								CHANNELS 3 Zrotation Yrotation Xrotation
								JOINT LeftHandEnd
								{
									OFFSET 0 0 0
									CHANNELS 3 Zrotation Yrotation Xrotation
									JOINT LeftHandIndex1
									{
										OFFSET 0.53641 -0.00000 -0.00000
										CHANNELS 3 Zrotation Yrotation Xrotation
										End Site
										{
											OFFSET 0.43247 -0.00000 -0.00000
										}
									}
								}
								JOINT LeftHandIndex2
								{
									OFFSET 0 0 0
									CHANNELS 3 Zrotation Yrotation Xrotation
									End Site
									{
										OFFSET 0.43907 -0.00000 0.43907
									}
								}
							}
						}
					}
				}
				JOINT RightShoulder
				{
					OFFSET 0 0 0
					CHANNELS 3 Zrotation Yrotation Xrotation
					JOINT RightArm
					{
						OFFSET -3.08296 1.43376 -0.52927
						CHANNELS 3 Zrotation Yrotation Xrotation
						JOINT RightForeArm
						{
							OFFSET -5.84780 -0.00000 0.00000
							CHANNELS 3 Zrotation Yrotation Xrotation
							JOINT RightHand
							{
								OFFSET -3.62717 -0.00000 -0.00000
								CHANNELS 3 Zrotation Yrotation Xrotation
								JOINT RightHandEnd
								{
									OFFSET 0 0 0
									CHANNELS 3 Zrotation Yrotation Xrotation
									JOINT RightHandIndex1
									{
										OFFSET -0.65052 -0.00000 -0.00000
										CHANNELS 3 Zrotation Yrotation Xrotation
										End Site
										{
											OFFSET -0.52446 -0.00000 -0.00000
										}
									}
								}
								JOINT RightHandIndex2
								{
									OFFSET 0 0 0
									CHANNELS 3 Zrotation Yrotation Xrotation
									End Site
									{
										OFFSET -0.53247 -0.00000 0.53247
									}
								}
							}
						}
					}
				}
			}
		}
	}
}
MOTION
Frames: 13
Frame Time: 0.0583331
-0.3071 17.6356 -28.2214 0 0 0 0 0 0 -21 0 0 0 0 0 0 0 0 0 0 0 0 0 0 21 0 0 0 0 0 0 0 0 0 0 0 0 0 0 0 0 0 0 0 0 0 0 -16 0 0 21 0 0 11 0 0 0 -8 0 0 0 0 0 0 0 0 0 0 0 0 0 0 0 0 0 0 0 0 8 0 0 0 0 0 0 0 0 0 0 0 0 0 0 0 0 0
-0.3071 17.2551 -28.2214 0.0512 1.6948 2.3671 0.0000 0.0000 0.0000 -24.9981 -10.1346 -17.0921 5.2848 13.6975 42.0390 0.8252 -7.1454 -16.2406 0.1700 -2.6560 -7.3225 0.0000 0.0000 0.0000 15.3421 -1.2251 -16.6881 -25.2647 -19.3221 105.5618 -0.7197 -10.8466 15.8632 -0.2505 -3.2203 8.8927 -3.3926 -0.3167 17.5350 -1.3072 -1.1602 2.3441 0.7969 -0.4843 -7.2691 -2.0386 0.8000 -2.2078 2.3527 1.3157 -13.5914 1.1038 0.6601 -4.0906 -0.0000 0.0000 0.0000 -82.3574 -3.0816 44.0111 124.8200 -54.8824 -89.6368 -0.0000 0.0000 -26.6004 39.1022 14.4814 11.4883 -7.1250 0.0000 -0.0000 11.3175 48.0591 0.8645 -0.0000 0.0000 0.0000 81.4747 -13.7099 37.2041 -54.9812 54.8171 -30.2007 0.0000 0.0000 6.8354 -42.7653 25.8641 -21.9726 7.1250 -0.0000 -0.0000 -7.5641 3.2007 -8.0435
-0.3071 17.4746 -28.2214 1.6840 2.7879 3.9556 0.0000 0.0000 0.0000 -27.5709 -3.0355 -2.8554 3.6316 11.6534 34.5165 0.4708 -7.7280 -12.5683 1.5100 -7.7606 -21.9892 0.0000 0.0000 0.0000 12.0333 4.1500 -36.8662 -25.2919 -19.3149 105.6441 -0.5157 -6.5109 12.8973 -0.4074 -4.0973 11.3506 -4.4278 -2.3528 17.2707 -1.0224 -4.0238 1.6542 2.3460 -1.8142 -7.6626 -1.2890 2.4367 -2.9004 -0.0640 3.2677 -11.9812 0.1333 1.6804 -3.3682 0.0000 0.0000 0.0000 -81.1449 -12.5918 44.8637 129.2628 -53.2885 -93.2360 -0.0000 0.0000 -18.5438 39.0575 6.2218 5.0258 -7.1250 0.0000 -0.0000 10.5377 37.7782 -1.8987 0.0000 0.0000 0.0000 82.0495 -20.2540 32.5473 -53.7773 54.4098 -29.2191 0.0000 0.0000 5.7163 -42.0206 25.4629 -21.1758 7.1250 -0.0000 -0.0000 -7.2365 2.4480 -7.5989
-0.3071 18.1239 -28.2214 2.1968 3.8578 5.6295 0.0000 0.0000 0.0000 -24.9559 2.8273 11.7787 1.1889 6.9193 19.4764 0.5894 -0.2418 14.5959 0.9397 -6.1743 -17.2909 0.0000 0.0000 0.0000 12.0387 9.7382 -45.1241 -17.4592 -19.8445 82.5527 -0.0905 -4.0702 5.6647 -0.0071 -0.5445 1.4961 -5.0408 -4.6269 15.7120 0.6079 -6.9808 0.3001 4.9907 -3.1753 -7.7780 -1.5240 3.4395 -3.2758 -1.7547 4.4694 -10.5365 -0.3659 2.3248 -2.7746 -0.0000 0.0000 0.0000 -78.5002 -12.3882 44.6757 136.1960 -50.1689 -98.6837 -0.0000 0.0000 -25.0775 38.4450 6.8668 5.4221 -7.1250 0.0000 -0.0000 10.0718 38.5368 -1.6228 -0.0000 0.0000 0.0000 78.6690 -28.0034 33.5340 -59.6049 56.2037 -34.0126 0.0000 0.0000 2.9362 -45.0515 24.8004 -22.7928 7.1250 -0.0000 -0.0000 -9.1254 2.8349 -9.6869
-0.3071 18.6362 -28.2214 3.3973 0.8324 6.6274 0.0000 0.0000 0.0000 -25.2870 6.1480 29.4545 0.0000 0.0000 0.0000 3.4905 17.9918 34.2993 0.5369 -4.6951 -13.0410 0.0000 0.0000 0.0000 10.6207 15.3542 -41.6821 -6.5796 -14.9674 47.2658 -0.0039 -3.5447 2.6602 -0.0360 1.2243 -3.3663 -5.0311 -4.3864 13.1326 0.5682 -6.5599 -0.3543 4.6398 -3.0022 -7.0930 0.0095 3.3983 -3.9862 -2.1224 4.4057 -8.3822 -0.6832 2.2320 -1.8906 0.0000 0.0000 0.0000 -74.9982 -8.7617 47.8527 139.0963 -48.5963 -100.8857 -0.0000 0.0000 -24.4513 37.0024 4.6093 3.4657 -7.1250 0.0000 -0.0000 8.6393 35.6331 -2.0072 0.0000 0.0000 0.0000 79.3786 -34.4347 30.0664 -65.2707 57.5582 -38.7594 0.0000 0.0000 2.8366 -47.1199 24.3481 -23.9399 7.1250 -0.0000 -0.0000 -10.4097 3.1554 -11.1485
-0.3071 18.6270 -28.2214 6.5159 -0.1847 6.3196 0.0000 0.0000 0.0000 -32.3199 1.7231 21.7489 3.4164 11.3404 33.4368 2.6224 11.4655 29.1900 0.2461 -3.1921 -8.8141 0.0000 0.0000 0.0000 8.2690 18.8856 -32.2931 -1.5422 -7.8391 22.2263 0.5217 -12.7792 -2.9812 -0.2546 3.2463 -8.9654 -6.5443 -4.1834 12.5678 0.0056 -6.4899 0.3024 4.7705 -2.9928 -5.9828 -0.4915 3.1595 -4.3221 -2.1158 4.0610 -10.4267 -0.6239 2.0834 -2.5199 -0.0000 0.0000 0.0000 -76.0423 -2.3334 49.6418 136.6797 -49.9186 -99.0545 -0.0000 0.0000 -22.3445 36.8126 4.8506 3.6212 -7.1250 0.0000 -0.0000 8.4998 35.9205 -1.9141 -0.0000 0.0000 0.0000 80.3006 -31.9870 27.8223 -67.6902 58.0332 -40.8067 0.0000 0.0000 2.7979 -48.3219 22.8966 -23.6062 7.1250 -0.0000 -0.0000 -11.4644 1.8731 -12.0742
-0.3071 18.1511 -28.2214 1.8851 -2.6449 3.6356 0.0000 0.0000 0.0000 -24.3395 5.7192 7.9209 14.3084 19.2049 73.1441 3.1826 9.5158 32.2568 0.6065 -4.9850 -13.8658 0.0000 0.0000 0.0000 21.2470 10.9589 -23.7112 -1.6187 -8.0220 22.7810 -0.0042 -1.2596 1.3534 -0.1498 -2.4938 6.8724 -1.6172 -3.4066 14.4332 1.5707 -4.6565 1.1129 3.4948 -2.2028 -6.6336 -2.3947 2.8093 -3.6446 -1.1355 3.6956 -9.6488 0.0050 1.9420 -2.4432 -0.0000 0.0000 0.0000 -80.1575 6.9336 47.4004 123.2393 -55.3831 -88.3399 -0.0000 0.0000 -24.7400 39.7277 8.5674 7.0574 -7.1250 0.0000 -0.0000 11.3797 40.7979 -1.1967 -0.0000 0.0000 0.0000 77.6096 -24.7199 31.7089 -74.5006 59.0725 -46.6189 0.0000 0.0000 0.7987 -45.1241 25.3368 -23.2579 7.1250 -0.0000 -0.0000 -9.0308 3.5116 -9.6851
-0.3071 17.3683 -28.2214 -3.9852 -5.4978 2.5953 0.0000 0.0000 0.0000 -8.8859 9.1751 -12.1170 26.2031 19.0513 108.4169 2.0161 -0.7333 27.1409 0.1232 -2.2627 -6.2322 0.0000 0.0000 0.0000 30.5169 15.0986 -16.6786 -4.8468 -13.2091 40.1564 -0.5855 -4.1499 -16.5621 -0.1457 -2.4599 6.7784 3.6623 -1.8739 17.1384 2.3343 -1.6211 2.4084 0.7918 -0.8555 -7.0534 0.6170 2.5799 -3.0376 -2.6280 3.2121 -11.7552 -1.0152 1.6479 -3.1847 -0.0000 0.0000 0.0000 -82.1961 15.7932 42.9782 109.0909 -58.5771 -76.4542 -0.0000 0.0000 -25.0950 40.1025 8.8174 7.3556 -7.1250 0.0000 -0.0000 11.7462 41.1566 -1.1310 -0.0000 0.0000 0.0000 78.8977 -8.9352 35.3003 -86.2895 59.9479 -56.7872 0.0000 0.0000 2.0589 -47.3664 24.8007 -24.4953 7.1250 -0.0000 -0.0000 -10.4298 3.8211 -11.2851
-0.3071 17.3180 -28.2214 -4.7272 -2.5251 3.3145 0.0000 0.0000 0.0000 -6.9021 0.7342 -33.9944 28.9500 17.9595 117.0561 0.6769 -6.2573 19.0603 0.3663 -3.8878 -10.7612 0.0000 0.0000 0.0000 32.6367 7.0769 -4.7188 -4.1351 -12.3380 36.9384 -1.0260 -3.5832 -20.7425 -0.4899 4.4880 -12.4538 5.0770 -1.3227 17.2507 2.4689 -0.5900 2.0021 -0.0908 -0.4016 -7.5506 1.2134 1.4168 -3.4332 -3.1211 1.6371 -10.3635 -1.2272 0.8509 -2.6611 0.0000 -0.0000 0.0000 -83.5994 23.6508 42.1753 104.8391 -59.1514 -72.8144 -0.0000 0.0000 -35.8683 39.9735 4.7668 3.9850 -7.1250 0.0000 -0.0000 11.1495 35.9971 -2.5062 0.0000 -0.0000 0.0000 78.4530 2.8210 37.5794 -100.1050 59.6106 -68.7397 0.0000 0.0000 3.2861 -49.4916 26.3646 -27.4654 7.1250 -0.0000 -0.0000 -11.1789 6.7374 -12.6433
-0.3071 17.8352 -28.2214 -5.5595 -4.8012 4.6657 0.0000 0.0000 0.0000 -8.0320 -5.2984 -44.4815 23.3811 19.7237 99.9295 0.0688 -5.9961 10.2372 0.3446 -3.7719 -10.4359 0.0000 0.0000 0.0000 31.2677 1.8342 11.9251 -1.7750 -8.3807 23.8766 0.0053 -1.3930 -1.0691 -0.4635 4.3669 -12.1111 6.7644 1.3855 14.5987 1.3936 3.0473 0.8264 -2.9484 1.2850 -7.0413 -0.3150 -0.1625 -4.8873 0.1051 -0.2001 -5.7153 0.0821 -0.0945 -0.9405 0.0000 -0.0000 0.0000 -81.9234 30.2971 42.5973 110.3841 -58.3703 -77.5566 -0.0000 0.0000 -33.0819 42.0367 10.5522 9.3752 -7.1250 0.0000 -0.0000 13.7613 43.6237 -0.4770 0.0000 -0.0000 0.0000 78.3336 3.6735 39.6245 -116.1932 57.2418 -82.4739 0.0000 0.0000 0.8354 -46.5349 24.3621 -23.5195 7.1250 -0.0000 -0.0000 -10.0762 2.9200 -10.7406
-0.3071 18.3664 -28.2214 -5.1478 -0.9842 4.1487 0.0000 0.0000 0.0000 -8.6855 -14.8210 -42.3503 12.1664 18.4601 66.5154 -0.1253 -7.8714 7.9550 0.4264 -4.1907 -11.6137 0.0000 0.0000 0.0000 29.5054 -2.4054 33.1889 0.0000 0.0000 -0.0000 -3.6091 -17.0338 34.7350 -0.6510 -5.1610 14.3682 7.4910 1.1882 11.4620 0.2912 2.5657 0.5717 -4.3201 1.0750 -5.5211 -0.9422 -0.9472 -5.3162 1.3534 -1.1927 -3.5460 0.5472 -0.5825 -0.1963 -0.0000 -0.0000 0.0000 -83.0239 35.7619 38.1651 116.2973 -57.2185 -82.5615 -0.0000 0.0000 -29.5096 41.4167 9.1446 7.9806 -7.1250 0.0000 -0.0000 12.9847 41.7334 -1.0662 -0.0000 -0.0000 0.0000 77.0806 0.9901 44.5637 -122.3298 55.6565 -87.5901 0.0000 0.0000 1.0675 -47.4449 25.8283 -25.3861 7.1250 -0.0000 -0.0000 -10.2000 5.1123 -11.2412
-0.3071 18.4362 -28.2214 -6.3822 0.5497 4.0213 0.0000 0.0000 0.0000 -7.7917 -17.6320 -34.4184 3.0233 10.7327 31.3835 0.1530 -3.3967 9.4439 0.8179 -5.7708 -16.1210 0.0000 0.0000 0.0000 35.5098 1.6602 28.3607 -2.3048 -9.4740 27.2897 -2.6002 -9.6322 29.0365 -1.2131 -6.9868 19.6762 7.8283 0.9564 11.4081 0.2395 2.2858 0.7464 -4.5173 0.9422 -5.3259 -1.1271 -1.0091 -7.0094 1.2647 -1.2434 -4.1712 0.5443 -0.5998 -0.1125 0.0000 -0.0000 0.0000 -85.0004 33.2827 35.3215 120.4776 -56.1813 -86.0560 -0.0000 0.0000 -31.8354 46.1879 12.7956 12.9991 -7.1250 0.0000 -0.0000 18.2838 47.2774 1.0615 0.0000 -0.0000 0.0000 76.8045 -1.5077 48.4953 -118.2084 56.7687 -84.1642 0.0000 0.0000 2.0297 -49.8548 27.2451 -28.4924 7.1250 -0.0000 -0.0000 -11.1255 7.9917 -12.7916
-0.3071 18.0132 -28.2214 -4.4799 0.6861 2.6639 0.0000 0.0000 0.0000 -15.1598 -9.9198 -27.3422 1.4910 7.7139 21.8483 0.1348 -3.9748 9.5485 0.6769 -5.2610 -14.6544 0.0000 0.0000 0.0000 31.0997 -0.3270 15.5901 -10.4245 -17.6418 60.8981 -2.5141 -14.1183 28.7894 -1.3362 -7.3194 20.6652 4.0751 0.7975 12.7095 -0.4236 1.6040 1.1692 -3.0270 0.6832 -5.7736 -0.8408 -0.5698 -4.5728 1.6905 -0.6496 -7.0337 0.6603 -0.3229 -1.4000 -0.0000 0.0000 0.0000 -84.5140 24.4536 36.7884 121.1043 -56.0084 -86.5761 -0.0000 0.0000 -32.4602 41.7363 11.2075 9.8368 -7.1250 0.0000 -0.0000 13.5685 44.4159 -0.1994 -0.0000 0.0000 0.0000 77.9671 -6.4222 47.7468 -100.7552 59.5584 -69.3005 0.0000 -0.0000 -0.0518 -47.4609 25.5757 -25.1959 7.1250 -0.0000 -0.0000 -10.2768 4.8121 -11.2791
