HIERARCHY
ROOT Hips
{
	OFFSET 0.00000 0.00000 0.00000
	CHANNELS 6 Xposition Yposition Zposition Zrotation Yrotation Xrotation 
	JOINT LHipJoint
	{
		OFFSET 0 0 0
		CHANNELS 3 Zrotation Yrotation Xrotation
		JOINT LeftUpLeg
		{
			OFFSET 1.57358 -1.76629 0.73362
			CHANNELS 3 Zrotation Yrotation Xrotation
			JOINT LeftLeg
			{
				OFFSET 2.40600 -6.61045 0.00000
				CHANNELS 3 Zrotation Yrotation Xrotation
				JOINT LeftFoot
				{
					OFFSET 2.66168 -7.31291 0.00000
					CHANNELS 3 Zrotation Yrotation Xrotation
					JOINT LeftToeBase
					{
						OFFSET 0.20870 -0.57341 2.12506
						CHANNELS 3 Zrotation Yrotation Xrotation
						End Site
						{
							OFFSET 0.00000 -0.00000 1.10557
						}
					}
				}
			}
		}
	}
	JOINT RHipJoint
	{
		OFFSET 0 0 0
		CHANNELS 3 Zrotation Yrotation Xrotation
		JOINT RightUpLeg
		{
			OFFSET -1.49299 -1.76629 0.73362
			CHANNELS 3 Zrotation Yrotation Xrotation
			JOINT RightLeg
			{
				OFFSET -2.43663 -6.69460 0.00000
				CHANNELS 3 Zrotation Yrotation Xrotation
				JOINT RightFoot
				{
					OFFSET -2.62959 -7.22474 0.00000
					CHANNELS 3 Zrotation Yrotation Xrotation
					JOINT RightToeBase
					{
						OFFSET -0.25784 -0.70841 2.21862
						CHANNELS 3 Zrotation Yrotation Xrotation
						End Site
						{
							OFFSET -0.00000 -0.00000 1.16452
						}
					}
				}
			}
		}
	}
	JOINT Spine
	{
		OFFSET 0 0 0
		CHANNELS 3 Zrotation Yrotation Xrotation
		JOINT Spine1
		{
			OFFSET -0.00034 2.12399 -0.25450
			CHANNELS 3 Zrotation Yrotation Xrotation
			JOINT Spine2
			{
				OFFSET 0.05594 2.14379 -0.03318
				CHANNELS 3 Zrotation Yrotation Xrotation
				JOINT Spine3
				{
					OFFSET 0 0 0
					CHANNELS 3 Zrotation Yrotation Xrotation
					JOINT Neck
					{
						OFFSET -0.09835 1.62725 0.24211
						CHANNELS 3 Zrotation Yrotation Xrotation
						JOINT Head
						{
							OFFSET 0.10849 1.66041 -0.22648
							CHANNELS 3 Zrotation Yrotation Xrotation
							End Site
							{
								OFFSET 0.04385 1.68267 -0.10541
							}
						}
					}
				}
				JOINT LeftShoulder
				{
					OFFSET 0 0 0
					CHANNELS 3 Zrotation Yrotation Xrotation
					JOINT LeftArm
					{
						OFFSET 3.29108 0.79398 -0.68179
						CHANNELS 3 Zrotation Yrotation Xrotation
						JOINT LeftForeArm
						{
							OFFSET 5.15310 -0.00000 -0.00000
							CHANNELS 3 Zrotation Yrotation Xrotation
							JOINT LeftHand
							{
								OFFSET 3.75138 -0.00000 -0.00000
								CHANNELS 3 Zrotation Yrotation Xrotation
								JOINT LeftHandEnd
								{
									OFFSET 0 0 0
									CHANNELS 3 Zrotation Yrotation Xrotation
									JOINT LeftHandIndex1
									{
										OFFSET 0.52917 -0.00000 0.00000
										CHANNELS 3 Zrotation Yrotation Xrotation
										End Site
										{
											OFFSET 0.42663 -0.00000 0.00000
										}
									}
								}
								JOINT LeftHandIndex2
								{
									OFFSET 0 0 0
									CHANNELS 3 Zrotation Yrotation Xrotation
									End Site
									{
										OFFSET 0.43315 -0.00000 0.43315
									}
								}
							}
						}
					}
				}
				JOINT RightShoulder
				{
					OFFSET 0 0 0
					CHANNELS 3 Zrotation Yrotation Xrotation
					JOINT RightArm
					{
						OFFSET -3.07414 1.06285 -0.44338
						CHANNELS 3 Zrotation Yrotation Xrotation
						JOINT RightForeArm
						{
							OFFSET -5.29613 -0.00000 0.00000
							CHANNELS 3 Zrotation Yrotation Xrotation
							JOINT RightHand
							{
								OFFSET -3.76144 -0.00000 -0.00000
								CHANNELS 3 Zrotation Yrotation Xrotation
								JOINT RightHandEnd
								{
									OFFSET 0 0 0
									CHANNELS 3 Zrotation Yrotation Xrotation
									JOINT RightHandIndex1
									{
										OFFSET -0.74732 -0.00000 0.00000
										CHANNELS 3 Zrotation Yrotation Xrotation
										End Site
										{
											OFFSET -0.60251 -0.00000 0.00000
										}
									}
								}
								JOINT RightHandIndex2
								{
									OFFSET 0 0 0
									CHANNELS 3 Zrotation Yrotation Xrotation
									End Site
									{
										OFFSET -0.61171 -0.00000 0.61171
									}
								}
							}
						}
					}
				}
			}
		}
	}
}
MOTION
Frames: 12
Frame Time: 0.0416665
1.0319 19.1337 -16.4168 -0.8233 0.3611 7.5654 0.0000 0.0000 0.0000 -15.9661 -7.0060 -21.4096 2.4828 9.8066 28.3527 1.2171 0.1550 20.8163 0.4499 -4.3031 -11.9310 0.0000 0.0000 0.0000 20.1929 5.6310 -19.0696 -2.3266 -9.5156 27.4217 -0.2843 -13.1984 12.5005 -0.0045 0.4317 -1.1861 0.1098 -0.2106 13.2266 2.3396 -0.1030 0.9004 2.4305 -0.0196 -6.4709 -9.2115 -4.8162 -24.8907 7.3582 -4.6319 9.4736 3.3156 -1.8640 7.2815 0.0000 -0.0000 0.0000 -87.8219 -4.3182 21.5516 14.2484 -23.0887 -2.9248 -0.0000 -0.0000 11.0484 15.8661 24.5305 6.7298 -7.1250 0.0000 -0.0000 -14.4473 54.7757 -3.5240 0.0000 -0.0000 0.0000 83.7653 -1.1617 11.8565 -15.6269 25.0121 -3.4867 0.0000 0.0000 12.7557 -15.5182 14.2966 -3.9225 7.1250 -0.0000 -0.0000 8.1411 -15.2670 5.7695
1.0319 20.3507 -16.4168 -0.8500 0.3390 8.1965 0.0000 0.0000 0.0000 -15.7344 -8.9115 -17.2344 1.2395 7.0598 19.8927 2.0134 7.4807 25.4975 0.0332 -1.1767 -3.2352 0.0000 0.0000 0.0000 19.8426 5.7335 -14.7783 -1.0072 -6.3859 17.9083 0.3118 -25.4086 15.8509 -0.5563 -4.7775 13.2750 0.6798 -0.1569 9.8790 2.1137 -0.0188 0.3830 1.8257 -0.0006 -5.1453 -9.2484 -4.7767 -23.8874 7.3938 -4.6962 10.0919 3.3331 -1.9142 7.3392 -0.0000 -0.0000 0.0000 -86.5099 -1.7001 24.1466 15.5017 -24.8404 -3.4339 -0.0000 -0.0000 6.9903 13.7385 25.8545 6.0857 -7.1250 0.0000 -0.0000 -17.3004 55.6453 -4.6194 -0.0000 -0.0000 0.0000 83.7158 -4.2427 14.6117 -16.7807 26.5678 -3.9888 0.0000 0.0000 10.3980 -15.0831 12.9857 -3.4656 7.1250 -0.0000 -0.0000 8.4355 -16.6396 5.7297
1.0319 21.3212 -16.4168 -0.5230 0.1041 7.3522 0.0000 0.0000 0.0000 -16.9117 -6.0687 -16.6696 1.3108 7.2522 20.4649 1.7953 7.6612 24.0262 0.0010 -0.2019 -0.5547 0.0000 0.0000 0.0000 19.7945 3.4624 -14.8665 -1.2336 -7.0434 19.8441 0.8118 -27.1838 13.9047 -1.3922 -7.4649 21.1001 0.5722 0.0467 9.4331 1.8966 0.2181 0.4832 1.6234 0.1152 -4.7958 -9.5850 -4.9229 -23.4719 7.5813 -4.9137 11.2216 3.4293 -2.0255 7.6836 0.0000 0.0000 0.0000 -84.8878 -0.4777 26.9793 16.8509 -26.6608 -4.0202 -0.0000 -0.0000 4.1980 12.2445 25.4533 5.3285 -7.1250 0.0000 -0.0000 -18.5700 54.9708 -4.6663 0.0000 0.0000 0.0000 82.7591 -5.4497 18.8161 -17.8873 28.0126 -4.4962 0.0000 0.0000 8.4647 -15.9341 13.0245 -3.6815 7.1250 -0.0000 -0.0000 7.8489 -16.5348 5.3414
1.0319 22.0147 -16.4168 0.1862 -0.2397 5.8291 0.0000 0.0000 0.0000 -18.3340 -3.2624 -16.8016 1.8726 8.5955 24.5380 1.5880 4.4694 22.7987 0.0047 0.4437 1.2192 0.0000 0.0000 0.0000 19.0833 2.0499 -15.2071 -1.9012 -8.6571 24.7284 -0.1532 -21.2655 16.1441 -0.9683 -6.2649 17.5549 -0.4211 0.1711 10.9585 1.7491 0.2765 0.5682 2.0268 0.1685 -5.5671 -9.6614 -4.5231 -22.4359 7.6216 -4.4759 11.5940 3.5248 -1.8398 7.6049 -0.0000 -0.0000 0.0000 -83.7626 0.0062 27.5360 17.9805 -28.1321 -4.5400 -0.0000 -0.0000 4.1106 12.2332 24.8836 5.2127 -7.1250 0.0000 -0.0000 -18.2634 54.4267 -4.3397 -0.0000 -0.0000 0.0000 81.6320 -5.4315 21.8667 -18.6540 28.9865 -4.8620 0.0000 0.0000 6.3430 -15.7237 13.5647 -3.7778 7.1250 -0.0000 -0.0000 7.9958 -15.9983 5.5372
1.0319 22.4199 -16.4168 -0.0535 0.1547 4.8053 0.0000 0.0000 0.0000 -18.0660 -2.4440 -16.9277 2.4130 9.6780 27.9402 1.6320 1.0216 23.8637 0.0174 0.8514 2.3400 0.0000 0.0000 0.0000 19.2299 2.2039 -14.2563 -2.2397 -9.3485 26.8915 -0.6968 -16.6473 17.7237 -0.5500 -4.7509 13.1993 -0.6941 0.0536 11.3742 2.2007 0.1137 0.6546 2.6843 0.1018 -5.7048 -9.9504 -4.4317 -20.9854 7.3736 -4.3716 11.6926 3.5100 -1.8574 7.3913 0.0000 0.0000 0.0000 -83.4220 -0.0748 26.8036 18.1800 -28.3870 -4.6345 -0.0000 -0.0000 2.6033 14.6697 24.7307 6.2499 -7.1250 0.0000 -0.0000 -15.7535 54.7416 -3.8409 0.0000 0.0000 0.0000 80.6421 -4.1081 21.3282 -18.2760 28.5092 -4.6802 0.0000 0.0000 7.5125 -15.7505 13.6432 -3.8060 7.1250 -0.0000 -0.0000 7.9779 -15.9158 5.5390
1.0319 22.4847 -16.4168 -0.6568 0.7916 4.4154 0.0000 0.0000 0.0000 -17.2412 -3.6028 -15.8951 2.4249 9.7001 28.0110 1.6710 -0.0236 24.4773 0.0066 0.5240 1.4399 0.0000 0.0000 0.0000 19.8065 2.4180 -12.8168 -2.0838 -9.0385 25.9158 -0.6289 -15.8998 16.8678 -0.4759 -4.4243 12.2734 -0.0098 -0.1416 10.7104 2.3369 -0.0605 0.7626 2.4596 -0.0036 -5.2111 -9.3321 -4.2883 -20.2481 6.8448 -4.3547 12.1608 3.2420 -1.8866 7.3955 0.0000 0.0000 0.0000 -82.6403 -0.5102 25.0762 18.5076 -28.8023 -4.7913 -0.0000 -0.0000 3.6330 13.7621 28.4067 6.6459 -7.1250 0.0000 -0.0000 -18.8528 58.0818 -6.1779 0.0000 0.0000 0.0000 80.8478 -3.1469 19.1169 -18.1465 28.3444 -4.6186 0.0000 0.0000 8.3324 -15.8260 10.8280 -3.0482 7.1250 -0.0000 -0.0000 7.9321 -18.7952 5.0016
1.0319 22.2473 -16.4168 -0.6385 0.8766 4.8350 0.0000 0.0000 0.0000 -17.2427 -5.2763 -14.7104 2.0680 9.0062 25.8149 1.3466 0.4628 21.8037 0.0006 -0.1529 -0.4201 0.0000 0.0000 0.0000 19.5025 3.2676 -11.9957 -1.8071 -8.4522 24.0962 -0.4711 -14.4934 14.9116 -0.3437 -3.7671 10.4223 -0.0432 -0.2408 9.3927 2.4407 -0.2014 0.4068 2.5961 -0.0718 -4.8393 -9.3119 -4.6134 -18.8950 6.5873 -4.8857 12.1576 3.0964 -2.1883 7.2074 0.0000 0.0000 0.0000 -82.1335 -0.6654 23.7741 18.0249 -28.1890 -4.5610 -0.0000 -0.0000 1.7788 16.7670 24.4056 7.0963 -7.1250 0.0000 -0.0000 -13.4742 54.8266 -3.2967 0.0000 0.0000 0.0000 80.4917 -3.4844 18.5351 -18.3700 28.6283 -4.7252 0.0000 0.0000 7.5903 -22.1101 16.6246 -6.6298 7.1250 -0.0000 -0.0000 3.7867 -12.1462 2.9117
1.0319 21.7051 -16.4168 -0.8377 1.0222 5.2704 0.0000 0.0000 0.0000 -17.1060 -6.6493 -13.8143 1.7624 8.3525 23.7899 0.9815 1.9927 18.1601 0.0005 0.1493 0.4103 0.0000 0.0000 0.0000 19.4942 4.2584 -11.5019 -1.5281 -7.8050 22.1233 -0.3967 -12.6654 13.3959 -0.1920 -2.8222 7.7842 0.2842 -0.3858 8.6386 2.5002 -0.3588 -0.0763 2.4899 -0.1535 -4.9152 -9.8273 -4.0889 -18.9028 7.2569 -4.2226 13.8034 3.5010 -1.8448 7.7230 -0.0000 0.0000 0.0000 -81.0865 -0.8974 22.9454 18.4088 -28.6775 -4.7438 -0.0000 -0.0000 4.2572 12.8219 28.7843 6.2541 -7.1250 0.0000 -0.0000 -20.0827 58.2320 -6.6753 -0.0000 0.0000 0.0000 79.9431 -3.6313 18.9065 -18.6628 28.9976 -4.8663 0.0000 0.0000 7.8398 -17.5174 12.6521 -3.9547 7.1250 -0.0000 -0.0000 6.7519 -16.7920 4.5453
1.0319 20.8701 -16.4168 -0.7533 0.9974 5.6875 0.0000 0.0000 0.0000 -17.1599 -7.0463 -13.6157 1.5437 7.8429 22.2378 0.8197 4.0215 16.2243 0.0117 -0.6974 -1.9166 0.0000 0.0000 0.0000 19.3988 5.3194 -11.9065 -1.4302 -7.5617 21.3906 -0.3249 -11.3509 12.0705 -0.0565 -1.5332 4.2174 -0.1519 -0.2412 8.2743 2.4404 -0.2114 -0.4001 2.6545 -0.0676 -5.0531 -9.6585 -4.4207 -17.9323 7.2996 -4.8026 13.3408 3.4178 -2.1246 7.4552 -0.0000 0.0000 0.0000 -79.6435 -0.7525 24.3471 19.2643 -29.7458 -5.1613 -0.0000 -0.0000 1.6454 15.1898 25.2179 6.5985 -7.1250 0.0000 -0.0000 -15.4843 55.3163 -3.9915 -0.0000 0.0000 0.0000 79.6189 -4.3212 20.5469 -19.3356 29.8335 -5.1967 0.0000 0.0000 4.7281 -19.5909 15.6768 -5.4932 7.1250 -0.0000 -0.0000 5.4203 -13.4455 4.0298
1.0319 19.7638 -16.4168 -1.0736 0.9272 5.6746 0.0000 0.0000 0.0000 -16.8666 -7.3570 -13.2965 1.5409 7.8362 22.2175 0.7724 4.5776 15.6926 0.1123 -2.1603 -5.9490 0.0000 0.0000 0.0000 20.0611 4.5449 -12.5568 -1.4127 -7.5174 21.2576 -0.5240 -9.8477 13.6812 -0.0010 0.2020 -0.5551 -0.1884 -0.2838 8.1378 2.5091 -0.2702 -0.3869 2.7523 -0.0957 -4.9591 -9.5561 -4.2898 -18.0011 7.5982 -4.6973 13.3281 3.5142 -2.0400 7.4585 -0.0000 0.0000 0.0000 -78.6956 -1.3314 24.7013 20.1476 -30.8198 -5.6068 -0.0000 -0.0000 0.7921 15.5332 24.9480 6.6867 -7.1250 0.0000 -0.0000 -14.9956 55.1202 -3.7891 -0.0000 0.0000 0.0000 79.1210 -4.2995 22.0181 -19.7533 30.3440 -5.4062 0.0000 0.0000 3.2494 -17.3482 14.9954 -4.6211 7.1250 -0.0000 -0.0000 6.9102 -14.3844 5.0142
1.0319 18.3433 -16.4168 -1.4244 1.0129 5.1124 0.0000 0.0000 0.0000 -16.5337 -6.6994 -13.9598 2.5130 9.8615 28.5294 -0.0145 -3.5355 -1.7104 0.6466 -5.1441 -14.3200 0.0000 0.0000 0.0000 21.2286 1.9394 -14.5820 -2.3764 -9.6096 27.7216 -0.0046 -1.0011 -2.0334 -0.1367 2.3832 -6.5659 -0.5637 -0.3596 8.4780 2.7063 -0.4016 -0.0399 3.1876 -0.1533 -4.7782 -9.9211 -4.1817 -17.7106 8.3287 -4.5926 12.9218 3.8313 -1.9472 7.2944 -0.0000 0.0000 0.0000 -78.0834 -2.3841 24.6473 21.7702 -32.7164 -6.4612 -0.0000 -0.0000 0.6106 12.6828 30.7596 6.5656 -7.1250 0.0000 -0.0000 -21.7018 60.0350 -8.1918 -0.0000 0.0000 0.0000 78.3652 -3.6477 23.7532 -20.3502 31.0620 -5.7109 0.0000 0.0000 2.5260 -16.7859 13.4843 -4.0235 7.1250 -0.0000 -0.0000 7.2662 -15.9932 5.0240
1.0319 17.1898 -16.4168 -0.7189 1.7882 3.6461 0.0000 0.0000 0.0000 -17.2402 -4.1867 -20.0435 4.7418 13.0870 39.6948 0.9779 -8.7853 -17.7885 0.0426 -1.3321 -3.6632 0.0000 0.0000 0.0000 20.8538 3.1342 -19.4183 -4.8375 -13.1984 40.1157 -0.9921 1.0551 -18.5023 -0.0335 1.1816 -3.2488 -1.9484 -0.4000 12.8409 2.5115 -0.6405 0.4284 3.8839 -0.2098 -6.7112 -9.6436 -4.6902 -19.6245 8.0232 -5.1406 13.2725 3.6016 -2.1804 7.7708 -0.0000 -0.0000 0.0000 -77.9973 -5.4922 23.1254 21.3570 -32.2427 -6.2393 -0.0000 -0.0000 3.0435 17.6953 15.8758 4.9880 -7.1250 0.0000 -0.0000 -9.4689 46.3808 -0.3255 -0.0000 -0.0000 0.0000 79.2651 -0.6474 20.5944 -19.9199 30.5457 -5.4906 0.0000 0.0000 6.6490 -14.3893 13.6879 -3.4741 7.1250 -0.0000 -0.0000 8.9099 -15.9777 6.1893
